{"type": "FeatureCollection", "features": [ {"type": "Feature", "properties": {"norad_id": 66637, "name": "STARLINK-35953", "group": "last-30-days", "lat": 29.208071757273686, "lon": -116.52419384157339, "alt_km": 82.93511559099534, "timestamp": "2025-12-06T05:40:08.012842+00:00", "meta": {"OBJECT_NAME": "STARLINK-35953", "OBJECT_ID": "2025-271W", "EPOCH": "2025-12-04T22:18:59.752800", "MEAN_MOTION": 15.86335951, "ECCENTRICITY": 0.0030581, "INCLINATION": 53.1554, "RA_OF_ASC_NODE": 225.4243, "ARG_OF_PERICENTER": 260.8528, "MEAN_ANOMALY": 98.9037, "EPHEMERIS_TYPE": 0, "CLASSIFICATION_TYPE": "U", "NORAD_CAT_ID": 66637, "ELEMENT_SET_NO": 999, "REV_AT_EPOCH": 298, "BSTAR": 0.039237, "MEAN_MOTION_DOT": 0.07541591, "MEAN_MOTION_DDOT": 0.099335}, "tle": {"line1": "1 66637U 25271W   25338.92985825  .07541591  99335-1  39237-1 0  9991", "line2": "2 66637  53.1554 225.4243 0030581 260.8528  98.9037 15.86335951  2984"}}, "geometry": {"type": "Point", "coordinates": [-116.52419384157339, 29.208071757273686]}}, {"type": "Feature", "properties": {"norad_id": 66638, "name": "STARLINK-35972", "group": "last-30-days", "lat": -34.474758433323565, "lon": 69.89212702171392, "alt_km": 341.2881137091608, "timestamp": "2025-12-06T05:40:08.012853+00:00", "meta": {"OBJECT_NAME": "STARLINK-35972", "OBJECT_ID": "2025-271X", "EPOCH": "2025-12-05T04:24:01.697472", "MEAN_MOTION": 15.78483302, "ECCENTRICITY": 7.392e-05, "INCLINATION": 53.1548, "RA_OF_ASC_NODE": 224.1592, "ARG_OF_PERICENTER": 112.1161, "MEAN_ANOMALY": 247.994, "EPHEMERIS_TYPE": 0, "CLASSIFICATION_TYPE": "U", "NORAD_CAT_ID": 66638, "ELEMENT_SET_NO": 999, "REV_AT_EPOCH": 302, "BSTAR": -0.0021743728, "MEAN_MOTION_DOT": -0.00369388, "MEAN_MOTION_DDOT": 0}, "tle": {"line1": "1 66638U 25271X   25339.18335298 -.00369388  00000+0 -21744-2 0  9995", "line2": "2 66638  53.1548 224.1592 0000739 112.1161 247.9940 15.78483302  3025"}}, "geometry": {"type": "Point", "coordinates": [69.89212702171392, -34.474758433323565]}}, {"type": "Feature", "properties": {"norad_id": 66639, "name": "STARLINK-35908", "group": "last-30-days", "lat": -51.68375058865487, "lon": 147.1753932066573, "alt_km": 310.815149578033, "timestamp": "2025-12-06T05:40:08.012863+00:00", "meta": {"OBJECT_NAME": "STARLINK-35908", "OBJECT_ID": "2025-271Y", "EPOCH": "2025-12-04T02:34:25.508352", "MEAN_MOTION": 15.84226755, "ECCENTRICITY": 0.00097052, "INCLINATION": 53.1556, "RA_OF_ASC_NODE": 229.5367, "ARG_OF_PERICENTER": 335.6046, "MEAN_ANOMALY": 24.4518, "EPHEMERIS_TYPE": 0, "CLASSIFICATION_TYPE": "U", "NORAD_CAT_ID": 66639, "ELEMENT_SET_NO": 999, "REV_AT_EPOCH": 285, "BSTAR": 0.0030756132, "MEAN_MOTION_DOT": 0.00777445, "MEAN_MOTION_DDOT": 0}, "tle": {"line1": "1 66639U 25271Y   25338.10723968  .00777445  00000+0  30756-2 0  9990", "line2": "2 66639  53.1556 229.5367 0009705 335.6046  24.4518 15.84226755  2853"}}, "geometry": {"type": "Point", "coordinates": [147.1753932066573, -51.68375058865487]}}, {"type": "Feature", "properties": {"norad_id": 66640, "name": "STARLINK-35921", "group": "last-30-days", "lat": -49.32894230376895, "lon": 99.61585401212336, "alt_km": 329.50167546310695, "timestamp": "2025-12-06T05:40:08.012873+00:00", "meta": {"OBJECT_NAME": "STARLINK-35921", "OBJECT_ID": "2025-271Z", "EPOCH": "2025-12-04T07:07:23.950272", "MEAN_MOTION": 15.81318878, "ECCENTRICITY": 0.0004963, "INCLINATION": 53.1562, "RA_OF_ASC_NODE": 228.5854, "ARG_OF_PERICENTER": 9.2257, "MEAN_ANOMALY": 350.8856, "EPHEMERIS_TYPE": 0, "CLASSIFICATION_TYPE": "U", "NORAD_CAT_ID": 66640, "ELEMENT_SET_NO": 999, "REV_AT_EPOCH": 288, "BSTAR": 0.0015698, "MEAN_MOTION_DOT": 0.00327985, "MEAN_MOTION_DDOT": 0}, "tle": {"line1": "1 66640U 25271Z   25338.29680498  .00327985  00000+0  15698-2 0  9990", "line2": "2 66640  53.1562 228.5854 0004963   9.2257 350.8856 15.81318878  2880"}}, "geometry": {"type": "Point", "coordinates": [99.61585401212336, -49.32894230376895]}}, {"type": "Feature", "properties": {"norad_id": 66641, "name": "STARLINK-35923", "group": "last-30-days", "lat": -53.06047685721721, "lon": 124.56840525749726, "alt_km": 304.86883118544574, "timestamp": "2025-12-06T05:40:08.012885+00:00", "meta": {"OBJECT_NAME": "STARLINK-35923", "OBJECT_ID": "2025-271AA", "EPOCH": "2025-12-05T05:49:45.867936", "MEAN_MOTION": 15.82828724, "ECCENTRICITY": 0.00292539, "INCLINATION": 53.1564, "RA_OF_ASC_NODE": 223.819, "ARG_OF_PERICENTER": 299.3636, "MEAN_ANOMALY": 60.4467, "EPHEMERIS_TYPE": 0, "CLASSIFICATION_TYPE": "U", "NORAD_CAT_ID": 66641, "ELEMENT_SET_NO": 999, "REV_AT_EPOCH": 303, "BSTAR": 0.0053548979, "MEAN_MOTION_DOT": 0.0135013, "MEAN_MOTION_DDOT": 0}, "tle": {"line1": "1 66641U 25271AA  25339.24289199  .01350130  00000+0  53549-2 0  9996", "line2": "2 66641  53.1564 223.8190 0029253 299.3636  60.4467 15.82828724  3033"}}, "geometry": {"type": "Point", "coordinates": [124.56840525749726, -53.06047685721721]}}, {"type": "Feature", "properties": {"norad_id": 66642, "name": "STARLINK-35926", "group": "last-30-days", "lat": -42.288035494814736, "lon": 81.88115194606829, "alt_km": 340.6085223801856, "timestamp": "2025-12-06T05:40:08.012896+00:00", "meta": {"OBJECT_NAME": "STARLINK-35926", "OBJECT_ID": "2025-271AB", "EPOCH": "2025-12-05T04:20:31.083648", "MEAN_MOTION": 15.779, "ECCENTRICITY": 0.0002359, "INCLINATION": 53.1543, "RA_OF_ASC_NODE": 224.1424, "ARG_OF_PERICENTER": 227.7076, "MEAN_ANOMALY": 132.3746, "EPHEMERIS_TYPE": 0, "CLASSIFICATION_TYPE": "U", "NORAD_CAT_ID": 66642, "ELEMENT_SET_NO": 999, "REV_AT_EPOCH": 298, "BSTAR": -0.0013018128, "MEAN_MOTION_DOT": -0.00219523, "MEAN_MOTION_DDOT": 0}, "tle": {"line1": "1 66642U 25271AB  25339.18091532 -.00219523  00000+0 -13018-2 0  9990", "line2": "2 66642  53.1543 224.1424 0002359 227.7076 132.3746 15.77900000  2980"}}, "geometry": {"type": "Point", "coordinates": [81.88115194606829, -42.288035494814736]}}, {"type": "Feature", "properties": {"norad_id": 66643, "name": "STARLINK-35918", "group": "last-30-days", "lat": -52.69295168253489, "lon": 118.58364693353859, "alt_km": 312.0257623448042, "timestamp": "2025-12-06T05:40:08.012908+00:00", "meta": {"OBJECT_NAME": "STARLINK-35918", "OBJECT_ID": "2025-271AC", "EPOCH": "2025-12-04T20:45:01.404576", "MEAN_MOTION": 15.82179053, "ECCENTRICITY": 0.00144, "INCLINATION": 53.1558, "RA_OF_ASC_NODE": 225.7279, "ARG_OF_PERICENTER": 264.2391, "MEAN_ANOMALY": 95.6991, "EPHEMERIS_TYPE": 0, "CLASSIFICATION_TYPE": "U", "NORAD_CAT_ID": 66643, "ELEMENT_SET_NO": 999, "REV_AT_EPOCH": 297, "BSTAR": 0.004581, "MEAN_MOTION_DOT": 0.01071055, "MEAN_MOTION_DDOT": 0}, "tle": {"line1": "1 66643U 25271AC  25338.86459959  .01071055  00000+0  45810-2 0  9996", "line2": "2 66643  53.1558 225.7279 0014400 264.2391  95.6991 15.82179053  2972"}}, "geometry": {"type": "Point", "coordinates": [118.58364693353859, -52.69295168253489]}}, {"type": "Feature", "properties": {"norad_id": 66644, "name": "STARLINK-35938", "group": "last-30-days", "lat": -52.20167188589543, "lon": 114.01852812193805, "alt_km": 316.36879631591, "timestamp": "2025-12-06T05:40:08.012919+00:00", "meta": {"OBJECT_NAME": "STARLINK-35938", "OBJECT_ID": "2025-271AD", "EPOCH": "2025-12-04T22:15:39.970080", "MEAN_MOTION": 15.81826433, "ECCENTRICITY": 0.0012965, "INCLINATION": 53.1553, "RA_OF_ASC_NODE": 225.4081, "ARG_OF_PERICENTER": 257.2448, "MEAN_ANOMALY": 102.7126, "EPHEMERIS_TYPE": 0, "CLASSIFICATION_TYPE": "U", "NORAD_CAT_ID": 66644, "ELEMENT_SET_NO": 999, "REV_AT_EPOCH": 298, "BSTAR": 0.0033361, "MEAN_MOTION_DOT": 0.007529, "MEAN_MOTION_DDOT": 0}, "tle": {"line1": "1 66644U 25271AD  25338.92754595  .00752900  00000+0  33361-2 0  9990", "line2": "2 66644  53.1553 225.4081 0012965 257.2448 102.7126 15.81826433  2986"}}, "geometry": {"type": "Point", "coordinates": [114.01852812193805, -52.20167188589543]}}, {"type": "Feature", "properties": {"norad_id": 66645, "name": "SHENZHOU-22", "group": "last-30-days", "lat": -28.612563583463153, "lon": 18.026443570828338, "alt_km": 387.6579966690506, "timestamp": "2025-12-06T05:40:08.012929+00:00", "meta": {"OBJECT_NAME": "SHENZHOU-22", "OBJECT_ID": "2025-272A", "EPOCH": "2025-12-05T06:48:03.993120", "MEAN_MOTION": 15.5871605, "ECCENTRICITY": 0.00098342, "INCLINATION": 41.4682, "RA_OF_ASC_NODE": 61.9587, "ARG_OF_PERICENTER": 333.0075, "MEAN_ANOMALY": 27.0251, "EPHEMERIS_TYPE": 0, "CLASSIFICATION_TYPE": "U", "NORAD_CAT_ID": 66645, "ELEMENT_SET_NO": 999, "REV_AT_EPOCH": 26289, "BSTAR": 0.00043162186, "MEAN_MOTION_DOT": 0.00034071, "MEAN_MOTION_DDOT": 0}, "tle": {"line1": "1 66645U 25272A   25339.28337955  .00034071  00000+0  43162-3 0  9992", "line2": "2 66645  41.4682  61.9587 0009834 333.0075  27.0251 15.58716050262897"}}, "geometry": {"type": "Point", "coordinates": [18.026443570828338, -28.612563583463153]}}, {"type": "Feature", "properties": {"norad_id": 66646, "name": "CZ-2F R/B", "group": "last-30-days", "lat": -25.064743067746885, "lon": -97.15600393216124, "alt_km": 167.84364798499064, "timestamp": "2025-12-06T05:40:08.012940+00:00", "meta": {"OBJECT_NAME": "CZ-2F R/B", "OBJECT_ID": "2025-272B", "EPOCH": "2025-12-05T15:30:36.913248", "MEAN_MOTION": 16.25262827, "ECCENTRICITY": 0.0054499, "INCLINATION": 41.4567, "RA_OF_ASC_NODE": 54.8075, "ARG_OF_PERICENTER": 209.5071, "MEAN_ANOMALY": 150.2711, "EPHEMERIS_TYPE": 0, "CLASSIFICATION_TYPE": "U", "NORAD_CAT_ID": 66646, "ELEMENT_SET_NO": 999, "REV_AT_EPOCH": 169, "BSTAR": 0.0005771, "MEAN_MOTION_DOT": 0.02719582, "MEAN_MOTION_DDOT": 7.7384e-06}, "tle": {"line1": "1 66646U 25272B   25339.64626057  .02719582  77384-5  57710-3 0  9995", "line2": "2 66646  41.4567  54.8075 0054499 209.5071 150.2711 16.25262827  1695"}}, "geometry": {"type": "Point", "coordinates": [-97.15600393216124, -25.064743067746885]}}]}